{
  "type": "FeatureCollection",
  "features": [
    {
      "type": "Feature",
      "properties": {
        "norad_id": 40362,
        "name": "YAOGAN-26",
        "group": "resource",
        "lat": -10.54342056852433,
        "lon": -14.40539076047323,
        "alt_km": 450.02384079164403,
        "timestamp": "2025-12-09T11:33:54.457575+00:00",
        "meta_object_name": "YAOGAN-26",
        "meta_object_id": "2014-088A",
        "meta_epoch": "2025-12-09T03:48:33.604128",
        "meta_mean_motion": 15.39105356,
        "meta_eccentricity": 0.0006746,
        "meta_inclination": 97.0644,
        "meta_ra_of_asc_node": 343.9604,
        "meta_arg_of_pericenter": 38.9797,
        "meta_mean_anomaly": 321.1935,
        "meta_ephemeris_type": 0,
        "meta_classification_type": "U",
        "meta_norad_cat_id": 40362,
        "meta_element_set_no": 999,
        "meta_rev_at_epoch": 60839,
        "meta_bstar": 0.00066436,
        "meta_mean_motion_dot": 0.00025735,
        "meta_mean_motion_ddot": 0,
        "tle_line1": "1 40362U 14088A   25343.15872227  .00025735  00000+0  66436-3 0  9996",
        "tle_line2": "2 40362  97.0644 343.9604 0006746  38.9797 321.1935 15.39105356608390"
      },
      "geometry": {
        "type": "Point",
        "coordinates": [
          -14.40539076047323,
          -10.54342056852433
        ]
      }
    },
    {
      "type": "Feature",
      "properties": {
        "norad_id": 40376,
        "name": "SMAP",
        "group": "resource",
        "lat": 45.86211487436912,
        "lon": -20.217921497625536,
        "alt_km": 677.7898965713275,
        "timestamp": "2025-12-09T11:33:54.457585+00:00",
        "meta_object_name": "SMAP",
        "meta_object_id": "2015-003A",
        "meta_epoch": "2025-12-09T03:08:53.559744",
        "meta_mean_motion": 14.63337369,
        "meta_eccentricity": 0.0001206,
        "meta_inclination": 98.1291,
        "meta_ra_of_asc_node": 347.907,
        "meta_arg_of_pericenter": 88.3513,
        "meta_mean_anomaly": 271.7827,
        "meta_ephemeris_type": 0,
        "meta_classification_type": "U",
        "meta_norad_cat_id": 40376,
        "meta_element_set_no": 999,
        "meta_rev_at_epoch": 57982,
        "meta_bstar": 0.00017918,
        "meta_mean_motion_dot": 8.78e-06,
        "meta_mean_motion_ddot": 0,
        "tle_line1": "1 40376U 15003A   25343.13117546  .00000878  00000+0  17918-3 0  9995",
        "tle_line2": "2 40376  98.1291 347.9070 0001206  88.3513 271.7827 14.63337369579829"
      },
      "geometry": {
        "type": "Point",
        "coordinates": [
          -20.217921497625536,
          45.86211487436912
        ]
      }
    },
    {
      "type": "Feature",
      "properties": {
        "norad_id": 40536,
        "name": "KOMPSAT-3A",
        "group": "resource",
        "lat": -54.89868169958055,
        "lon": 126.58041126874998,
        "alt_km": 442.7640593348724,
        "timestamp": "2025-12-09T11:33:54.457596+00:00",
        "meta_object_name": "KOMPSAT-3A",
        "meta_object_id": "2015-014A",
        "meta_epoch": "2025-12-09T04:19:31.586016",
        "meta_mean_motion": 15.43744152,
        "meta_eccentricity": 0.0004531,
        "meta_inclination": 97.6791,
        "meta_ra_of_asc_node": 317.3303,
        "meta_arg_of_pericenter": 134.3186,
        "meta_mean_anomaly": 225.8433,
        "meta_ephemeris_type": 0,
        "meta_classification_type": "U",
        "meta_norad_cat_id": 40536,
        "meta_element_set_no": 999,
        "meta_rev_at_epoch": 59240,
        "meta_bstar": 0.00051151,
        "meta_mean_motion_dot": 0.00023067,
        "meta_mean_motion_ddot": 0,
        "tle_line1": "1 40536U 15014A   25343.18022669  .00023067  00000+0  51151-3 0  9993",
        "tle_line2": "2 40536  97.6791 317.3303 0004531 134.3186 225.8433 15.43744152592401"
      },
      "geometry": {
        "type": "Point",
        "coordinates": [
          126.58041126874998,
          -54.89868169958055
        ]
      }
    },
    {
      "type": "Feature",
      "properties": {
        "norad_id": 40697,
        "name": "SENTINEL-2A",
        "group": "resource",
        "lat": -63.04197336080468,
        "lon": 73.30667702998727,
        "alt_km": 796.8156939118835,
        "timestamp": "2025-12-09T11:33:54.457606+00:00",
        "meta_object_name": "SENTINEL-2A",
        "meta_object_id": "2015-028A",
        "meta_epoch": "2025-12-09T05:09:07.803360",
        "meta_mean_motion": 14.3082437,
        "meta_eccentricity": 0.0001037,
        "meta_inclination": 98.5694,
        "meta_ra_of_asc_node": 55.7975,
        "meta_arg_of_pericenter": 91.0494,
        "meta_mean_anomaly": 269.0808,
        "meta_ephemeris_type": 0,
        "meta_classification_type": "U",
        "meta_norad_cat_id": 40697,
        "meta_element_set_no": 999,
        "meta_rev_at_epoch": 54656,
        "meta_bstar": -5.1089e-07,
        "meta_mean_motion_dot": -4.5e-07,
        "meta_mean_motion_ddot": 0,
        "tle_line1": "1 40697U 15028A   25343.21467365 -.00000045  00000+0 -51089-6 0  9992",
        "tle_line2": "2 40697  98.5694  55.7975 0001037  91.0494 269.0808 14.30824370546566"
      },
      "geometry": {
        "type": "Point",
        "coordinates": [
          73.30667702998727,
          -63.04197336080468
        ]
      }
    },
    {
      "type": "Feature",
      "properties": {
        "norad_id": 40701,
        "name": "GAOFEN-8",
        "group": "resource",
        "lat": 17.698213093457618,
        "lon": -16.064449539057293,
        "alt_km": 443.87842347087826,
        "timestamp": "2025-12-09T11:33:54.457616+00:00",
        "meta_object_name": "GAOFEN-8",
        "meta_object_id": "2015-030A",
        "meta_epoch": "2025-12-09T04:37:08.548320",
        "meta_mean_motion": 15.38353277,
        "meta_eccentricity": 0.0011449,
        "meta_inclination": 97.691,
        "meta_ra_of_asc_node": 161.1606,
        "meta_arg_of_pericenter": 149.8511,
        "meta_mean_anomaly": 210.3394,
        "meta_ephemeris_type": 0,
        "meta_classification_type": "U",
        "meta_norad_cat_id": 40701,
        "meta_element_set_no": 999,
        "meta_rev_at_epoch": 58216,
        "meta_bstar": 0.00032101,
        "meta_mean_motion_dot": 0.0001208,
        "meta_mean_motion_ddot": 0,
        "tle_line1": "1 40701U 15030A   25343.19246005  .00012080  00000+0  32101-3 0  9995",
        "tle_line2": "2 40701  97.6910 161.1606 0011449 149.8511 210.3394 15.38353277582163"
      },
      "geometry": {
        "type": "Point",
        "coordinates": [
          -16.064449539057293,
          17.698213093457618
        ]
      }
    },
    {
      "type": "Feature",
      "properties": {
        "norad_id": 40718,
        "name": "CARBONITE 1 (CBNT-1)",
        "group": "resource",
        "lat": 25.69709660634944,
        "lon": 160.96556503759527,
        "alt_km": 629.5574855933146,
        "timestamp": "2025-12-09T11:33:54.457626+00:00",
        "meta_object_name": "CARBONITE 1 (CBNT-1)",
        "meta_object_id": "2015-032D",
        "meta_epoch": "2025-12-09T03:20:59.674848",
        "meta_mean_motion": 14.82715962,
        "meta_eccentricity": 0.0014141,
        "meta_inclination": 97.6404,
        "meta_ra_of_asc_node": 164.3421,
        "meta_arg_of_pericenter": 193.063,
        "meta_mean_anomaly": 167.022,
        "meta_ephemeris_type": 0,
        "meta_classification_type": "U",
        "meta_norad_cat_id": 40718,
        "meta_element_set_no": 999,
        "meta_rev_at_epoch": 56117,
        "meta_bstar": 0.00029179,
        "meta_mean_motion_dot": 2.309e-05,
        "meta_mean_motion_ddot": 0,
        "tle_line1": "1 40718U 15032D   25343.13957957  .00002309  00000+0  29179-3 0  9998",
        "tle_line2": "2 40718  97.6404 164.3421 0014141 193.0630 167.0220 14.82715962561179"
      },
      "geometry": {
        "type": "Point",
        "coordinates": [
          160.96556503759527,
          25.69709660634944
        ]
      }
    },
    {
      "type": "Feature",
      "properties": {
        "norad_id": 40878,
        "name": "YAOGAN-27",
        "group": "resource",
        "lat": -54.66438378071917,
        "lon": 138.68806236053544,
        "alt_km": 1203.710595742199,
        "timestamp": "2025-12-09T11:33:54.457637+00:00",
        "meta_object_name": "YAOGAN-27",
        "meta_object_id": "2015-040A",
        "meta_epoch": "2025-12-09T04:53:45.023712",
        "meta_mean_motion": 13.16058709,
        "meta_eccentricity": 0.0007689,
        "meta_inclination": 100.1005,
        "meta_ra_of_asc_node": 332.9834,
        "meta_arg_of_pericenter": 295.5799,
        "meta_mean_anomaly": 64.4519,
        "meta_ephemeris_type": 0,
        "meta_classification_type": "U",
        "meta_norad_cat_id": 40878,
        "meta_element_set_no": 999,
        "meta_rev_at_epoch": 49267,
        "meta_bstar": -0.00029913,
        "meta_mean_motion_dot": -1.56e-06,
        "meta_mean_motion_ddot": 0,
        "tle_line1": "1 40878U 15040A   25343.20399333 -.00000156  00000+0 -29913-3 0  9996",
        "tle_line2": "2 40878 100.1005 332.9834 0007689 295.5799  64.4519 13.16058709492671"
      },
      "geometry": {
        "type": "Point",
        "coordinates": [
          138.68806236053544,
          -54.66438378071917
        ]
      }
    }
  ]
}